     2.100          NAVIGATION                              RINEX VERSION / TYPE
fic2rin                                 10/27/2010 00:17:11 PGM / RUN BY / DATE
                                                            END OF HEADER
13 10 10 26  7 59 44.0  .293846707791D-03 -.102318153949D-11  .000000000000D+00
     .190000000000D+02  .232812500000D+02  .418231706744D-08 -.178605884854D+01
     .142306089401D-05  .428957189433D-02  .178255140781D-05  .515368832588D+04
     .201584000000D+06 -.335276126862D-07 -.122032430523D+01  .130385160446D-06
     .991398124237D+00  .364062500000D+03  .181069503707D+01 -.810533761985D-08
     .111076055335D-09  .100000000000D+01  .160700000000D+04  .000000000000D+00
     .240000000000D+01  .000000000000D+00 -.107102096081D-07  .190000000000D+02
     .194406000000D+06  .400000000000D+01
24 10 10 26  7 59 44.0  .333328265697D-03  .329691829393D-11  .000000000000D+00
     .100000000000D+01  .371875000000D+01  .459947730098D-08 -.268598031468D+01
     .266358256340D-06  .575777003542D-02  .980310142040D-05  .515475219154D+04
     .201584000000D+06 -.707805156708D-07  .294651232876D+01  .931322574615D-08
     .949189521736D+00  .183687500000D+03 -.340947463728D+00 -.790318634229D-08
    -.483234414367D-09  .100000000000D+01  .160700000000D+04  .000000000000D+00
     .240000000000D+01  .000000000000D+00 -.139698386192D-08  .100000000000D+01
     .194406000000D+06  .400000000000D+01
30 10 10 26  7 59 44.0  .290662515908D-03  .341060513165D-11  .000000000000D+00
     .140000000000D+02 -.322500000000D+02  .454126059030D-08 -.652481732083D+00
    -.166147947311D-05  .131195781287D-01  .108145177364D-04  .515535066032D+04
     .201584000000D+06 -.173225998878D-06  .755898875297D+00  .651925802231D-07
     .957941143877D+00  .169250000000D+03  .155287311823D+01 -.813426739632D-08
     .422874757288D-09  .100000000000D+01  .160700000000D+04  .000000000000D+00
     .240000000000D+01  .000000000000D+00 -.791624188423D-08  .140000000000D+02
     .194406000000D+06  .400000000000D+01
 1 10 10 26  8  0  0.0 -.176067464054D-03 -.375166564481D-11  .000000000000D+00
     .103000000000D+03 -.389062500000D+02  .424339103998D-08 -.105432838348D+01
    -.205263495445D-05  .443384132814D-02  .105947256088D-04  .515352025414D+04
     .201600000000D+06  .447034835815D-07  .796469694194D+00  .124797224998D-06
     .966434224505D+00  .177906250000D+03  .952993325254D+00 -.776460914142D-08
     .361086469272D-09  .100000000000D+01  .160700000000D+04  .000000000000D+00
     .340000000000D+01  .630000000000D+02 -.190921127796D-07  .103000000000D+03
     .194406000000D+06  .400000000000D+01
 2 10 10 26  8  0  0.0  .298079103231D-03  .261479726760D-11  .000000000000D+00
     .260000000000D+02 -.546875000000D+01  .478805658463D-08 -.252148276629D+01
    -.227242708206D-06  .975108693819D-02  .935420393944D-05  .515365656853D+04
     .201600000000D+06 -.188127160072D-06  .287794545055D+01 -.763684511185D-07
     .939834469295D+00  .187312500000D+03 -.313805854780D+01 -.799890461506D-08
    -.427160650099D-09  .100000000000D+01  .160700000000D+04  .000000000000D+00
     .240000000000D+01  .000000000000D+00 -.172294676304D-07  .260000000000D+02
     .194406000000D+06  .400000000000D+01
 3 10 10 26  8  0  0.0  .626633409411D-03  .500222085975D-11  .000000000000D+00
     .510000000000D+02  .531250000000D+00  .550522931490D-08 -.263484669768D+01
     .670552253723D-07  .137887221063D-01  .543519854546D-05  .515360826874D+04
     .201600000000D+06  .176951289177D-06  .172318026103D+01 -.894069671631D-07
     .927359521686D+00  .255500000000D+03  .105147948364D+01 -.825177229087D-08
     .282154610015D-09  .100000000000D+01  .160700000000D+04  .000000000000D+00
     .240000000000D+01  .000000000000D+00 -.465661287308D-08  .510000000000D+02
     .194406000000D+06  .400000000000D+01
 4 10 10 26  8  0  0.0  .203388743103D-03  .954969436862D-11  .000000000000D+00
     .490000000000D+02 -.737500000000D+01  .490377569051D-08  .464789705317D+00
    -.165775418282D-06  .941803748719D-02  .899843871593D-05  .515376930237D+04
     .201600000000D+06 -.875443220139D-07  .289560934518D+01  .206753611565D-06
     .938965425736D+00  .193906250000D+03  .664194853399D+00 -.819998441941D-08
    -.502163774280D-09  .100000000000D+01  .160700000000D+04  .000000000000D+00
     .240000000000D+01  .000000000000D+00 -.605359673500D-08  .490000000000D+02
     .194406000000D+06  .400000000000D+01
 5 10 10 26  8  0  0.0 -.573839060962D-04 -.591171556152D-11  .000000000000D+00
     .700000000000D+02  .105843750000D+03  .432696594979D-08 -.839580877651D+00
     .550784170628D-05  .197263911832D-02  .836327672005D-05  .515355426979D+04
     .201600000000D+06  .465661287308D-07 -.234495878195D+01 -.428408384323D-07
     .956718511555D+00  .211875000000D+03  .168144813826D+00 -.797176062726D-08
     .115361948145D-09  .100000000000D+01  .160700000000D+04  .000000000000D+00
     .240000000000D+01  .000000000000D+00 -.884756445885D-08  .700000000000D+02
     .194406000000D+06  .400000000000D+01
 6 10 10 26  8  0  0.0  .442337710410D-03 -.134150468512D-10  .000000000000D+00
     .450000000000D+02 -.168750000000D+01  .542201156283D-08 -.475262146290D+00
     .000000000000D+00  .616879796144D-02  .560469925404D-05  .515364471436D+04
     .201600000000D+06 -.126659870148D-06  .179508732793D+01 -.875443220139D-07
     .934627114377D+00  .260250000000D+03 -.926424471264D+00 -.846070956537D-08
     .158220876249D-09  .100000000000D+01  .160700000000D+04  .000000000000D+00
     .240000000000D+01  .000000000000D+00 -.512227416039D-08  .450000000000D+02
     .194406000000D+06  .400000000000D+01
 7 10 10 26  8  0  0.0 -.114087015390D-05  .341060513165D-12  .000000000000D+00
     .155000000000D+03 -.107187500000D+03  .433053752713D-08  .205121816028D+01
    -.547990202904D-05  .415478344075D-02  .613182783127D-05  .515369025230D+04
     .201600000000D+06  .223517417908D-07 -.241895845076D+00  .109896063805D-06
     .973274668522D+00  .269906250000D+03  .313470731408D+01 -.802604860285D-08
    -.187864968187D-09  .100000000000D+01  .160700000000D+04  .000000000000D+00
     .240000000000D+01  .000000000000D+00 -.102445483208D-07  .155000000000D+03
     .194406000000D+06  .400000000000D+01
 8 10 10 26  8  0  0.0  .686710700393D-05  .000000000000D+00  .000000000000D+00
     .390000000000D+02 -.106343750000D+03  .380944439294D-08  .148050531114D+01
    -.531971454620D-05  .115265449276D-01  .678002834320D-05  .515365620232D+04
     .201600000000D+06  .800937414169D-07 -.170871707755D+00  .109896063805D-06
     .994806786267D+00  .267437500000D+03 -.312505269990D+01 -.776210903728D-08
    -.320370487574D-09  .100000000000D+01  .160700000000D+04  .000000000000D+00
     .240000000000D+01  .000000000000D+00 -.372529029846D-08  .390000000000D+02
     .194406000000D+06  .400000000000D+01
 9 10 10 26  8  0  0.0  .386233441532D-04  .227373675443D-11  .000000000000D+00
     .160000000000D+02 -.113937500000D+03  .409088468748D-08  .135897474929D+01
    -.620074570179D-05  .169747649925D-01  .651925802231D-05  .515370175362D+04
     .201600000000D+06 -.212341547012D-06 -.271935129887D+00 -.409781932831D-06
     .982290035774D+00  .267500000000D+03  .155223588721D+01 -.797068915405D-08
    -.160363822654D-09  .100000000000D+01  .160700000000D+04  .000000000000D+00
     .240000000000D+01  .000000000000D+00 -.558793544769D-08  .160000000000D+02
     .194406000000D+06  .400000000000D+01
10 10 10 26  8  0  0.0 -.561950728297D-04 -.102318153949D-11  .000000000000D+00
     .900000000000D+01  .105750000000D+03  .451018786743D-08 -.682501434273D+00
     .568851828575D-05  .950925855432D-02  .808387994766D-05  .515353794289D+04
     .201600000000D+06  .141561031342D-06 -.232005821341D+01  .137835741043D-06
     .951690956583D+00  .218531250000D+03  .666568609144D+00 -.816319717279D-08
     .116790579082D-09  .100000000000D+01  .160700000000D+04  .000000000000D+00
     .240000000000D+01  .000000000000D+00 -.279396772385D-08  .900000000000D+01
     .194406000000D+06  .400000000000D+01
11 10 10 26  8  0  0.0 -.992473214865D-04 -.272848410532D-11  .000000000000D+00
     .610000000000D+02 -.270625000000D+02  .629776232708D-08  .194622432200D+01
    -.153854489326D-05  .113165666116D-01  .742264091969D-05  .515347144127D+04
     .201600000000D+06 -.199303030968D-06  .265174806528D+01 -.176951289177D-06
     .888358533847D+00  .199843750000D+03  .869988662748D+00 -.883465371307D-08
    -.475019786481D-09  .100000000000D+01  .160700000000D+04  .000000000000D+00
     .240000000000D+01  .000000000000D+00 -.116415321827D-07  .610000000000D+02
     .194406000000D+06  .400000000000D+01
14 10 10 26  8  0  0.0  .101461075246D-03  .352429196937D-11  .000000000000D+00
     .180000000000D+02  .232812500000D+02  .430125059292D-08 -.182551813936D+01
     .131875276566D-05  .574486947153D-02  .763684511185D-06  .515358731461D+04
     .201600000000D+06  .689178705215D-07 -.124312598718D+01 -.745058059692D-08
     .984558941255D+00  .375375000000D+03 -.210452772310D+01 -.820284168128D-08
     .158220876249D-09  .100000000000D+01  .160700000000D+04  .000000000000D+00
     .240000000000D+01  .000000000000D+00 -.884756445885D-08  .180000000000D+02
     .194406000000D+06  .400000000000D+01
15 10 10 26  8  0  0.0 -.191161409020D-03  .477484718431D-11  .000000000000D+00
     .820000000000D+02  .305937500000D+02  .503878131404D-08 -.199183674281D+01
     .152178108692D-05  .289728282951D-02  .118650496006D-05  .515383486366D+04
     .201600000000D+06 -.130385160446D-07 -.131208955903D+01 -.372529029846D-07
     .951966672753D+00  .356187500000D+03 -.211857891520D+00 -.851749764511D-08
     .148220459691D-09  .100000000000D+01  .160700000000D+04  .000000000000D+00
     .240000000000D+01  .000000000000D+00 -.977888703346D-08  .820000000000D+02
     .194406000000D+06  .400000000000D+01
